KUIPER-00053            
1 64513U 25134P   25272.25002315 -.00630569  00000+0 -36450-1 0  9999
2 64513  51.8959 220.1316 0004677  89.5361 151.9205 15.14422299  5826
KUIPER-00054            
1 64514U 25134Q   25272.25002315 -.01067396  00000+0 -43437-1 0  9996
2 64514  51.8786 218.9497 0006026 107.3976 357.5842 15.26887526  4675
KUIPER-00055            
1 64515U 25134R   25272.25002315 -.00623428  00000+0 -22556-1 0  9999
2 64515  51.8806 218.5940 0001120  76.3924 235.0724 15.30192459  5798
KUIPER-00056            
1 64516U 25134S   25272.25002315 -.00563649  00000+0 -32245-1 0  9994
2 64516  51.8800 220.7829 0005062  95.9769 240.1281 15.14507783  3220
KUIPER-00057            
1 64517U 25134T   25272.25002315  .00022007  00000+0  23562-2 0  9994
2 64517  51.8943 225.7348 0010418  99.8637 219.7727 14.88579131  5357
KUIPER-00058            
1 64518U 25134U   25272.25002315  .00053966  00000+0  33536-2 0  9995
2 64518  51.8817 221.7720 0006671 110.9412  99.4562 15.09118123  5220
KUIPER-00059            
1 64519U 25134V   25272.25002315 -.00349399  00000+0 -16351-1 0  9991
2 64519  51.8858 219.4832 0001633 116.7557 138.9752 15.20868404  2753
KUIPER-00060            
1 64520U 25134W   25272.25002315 -.00788225  00000+0 -39980-1 0  9991
2 64520  51.8816 219.5256 0002813  99.6374  77.3772 15.19141699  5835
